{
  "norad_id": 56100,
  "name": "STARLINK-6076",
  "history": [
    {
      "epoch": "2026-03-28T21:48:42.773760",
      "apogee_km": 488.98072887202943,
      "perigee_km": 487.260044770891,
      "latitude_deg": 20.398441681576664,
      "longitude_deg": -122.75247359997593,
      "semi_major_axis_km": 6866.2573868214595,
      "eccentricity": 0.0001253,
      "inclination_deg": 43.0049,
      "raan_deg": 51.9263,
      "arg_perigee_deg": 258.8021,
      "mean_anomaly_deg": 101.2689,
      "mean_motion_rev_day": 15.25887949
    },
    {
      "epoch": "2026-03-28T21:48:42.774624",
      "apogee_km": 488.98079753460297,
      "perigee_km": 487.25997610831655,
      "latitude_deg": 20.39843562580861,
      "longitude_deg": -122.75247263978235,
      "semi_major_axis_km": 6866.2573868214595,
      "eccentricity": 0.00012531,
      "inclination_deg": 43.0049,
      "raan_deg": 51.9263,
      "arg_perigee_deg": 258.8021,
      "mean_anomaly_deg": 101.2689,
      "mean_motion_rev_day": 15.25887949
    }
  ]
}